GLOBALSTAR M057         
1 25943U 99058A   25052.96710717 -.00000018  00000+0  68309-3 0  9994
2 25943  52.0004 315.1992 0002851 127.1500 232.9611 12.24813356152814
GLOBALSTAR M059         
1 25944U 99058B   25053.47912458 -.00000091  00000+0 -62557-4 0  9990
2 25944  52.0012 157.4944 0001172 110.6365 331.1500 11.99973970149027
GLOBALSTAR M056         
1 25945U 99058C   25053.43690856 -.00000126  00000+0 -45002-3 0  9996
2 25945  51.9957 162.5120 0000281 357.9055  77.3669 12.04777341148844
GLOBALSTAR M031         
1 25946U 99058D   25053.52558542  .00000040  00000+0  13233-2 0  9995
2 25946  51.9965  61.4664 0001135 307.1727 224.1417 12.16029801150835
GLOBALSTAR M039         
1 25961U 99062A   25052.87827827 -.00000050  00000+0  29744-3 0  9996
2 25961  51.9828 259.9261 0003635  91.0265 269.1018 12.62319225165655
GLOBALSTAR M034         
1 25962U 99062B   25052.95144100 -.00000046  00000+0  55866-3 0  9991
2 25962  51.9891 310.9380 0013807 180.3934 263.9104 11.79444557124795
GLOBALSTAR M029         
1 25963U 99062C   25053.41383954 -.00000070  00000+0  20624-3 0  9997
2 25963  51.9815  45.8042 0002375 249.8896 263.5743 11.99891739155392
GLOBALSTAR M061         
1 25964U 99062D   25053.18731421 -.00000083  00000+0 -49866-4 0  9993
2 25964  51.9786 132.8298 0006641 111.3259 263.3165 11.76770921107933
